APRIZESAT 2             
1 28366U 04025A   26171.27666579  .00000121  00000+0  50967-4 0  9995
2 28366  98.1018 337.0821 0104422 240.4127 118.6624 14.38036757152089
SAUDICOMSAT 1           
1 28369U 04025D   26170.49110361  .00000270  00000+0  73050-4 0  9997
2 28369  98.5770 180.6846 0032498  18.7342 341.5042 14.55475311164466
SAUDICOMSAT 2           
1 28370U 04025E   26171.02338582  .00000164  00000+0  54375-4 0  9997
2 28370  98.6640 183.3499 0054236 250.7204 108.8117 14.49982524160519
APRIZESAT 1             
1 28372U 04025G   26170.98264002  .00000172  00000+0  54385-4 0  9998
2 28372  98.6302 181.7843 0045256 145.4838 214.9309 14.51778242162311
NANOSAT-1               
1 28493U 04049B   26171.27873883  .00000744  00000+0  10527-3 0  9998
2 28493  98.2281 308.0153 0002740 288.1171  71.9741 14.80164530155900
SAUDICOMSAT 7           
1 31119U 07012C   26171.18395817  .00000318  00000+0  66106-4 0  9998
2 31119  98.3779 145.3770 0055505 185.7590 174.2981 14.66112387 22872
SAUDICOMSAT 6           
1 31121U 07012E   26171.16887640  .00000421  00000+0  90298-4 0  9993
2 31121  98.4099 138.7408 0070894 318.3870  41.1948 14.62561309 20622
SAUDICOMSAT 5           
1 31124U 07012H   26171.15322598  .00000489  00000+0  92697-4 0  9990
2 31124  98.3490 146.0921 0048583 115.5905 245.0332 14.68159496 24034
SAUDICOMSAT 3           
1 31125U 07012J   26171.17667804  .00000653  00000+0  11467-3 0  9993
2 31125  98.3144 146.6641 0040087  44.0531 316.3856 14.70709973 25261
SAUDICOMSAT 4           
1 31127U 07012L   26170.88755549  .00000321  00000+0  68872-4 0  9991
2 31127  98.3983 143.5131 0062119 249.6146 109.8377 14.64514326 21683
APRIZESAT 4             
1 35684U 09041D   26170.75201161  .00000445  00000+0  59830-4 0  9990
2 35684  98.1412 246.1237 0042243 314.5541  45.2225 14.83882094911745
APRIZESAT 3             
1 35686U 09041F   26171.10833552  .00001567  00000+0  13929-3 0  9991
2 35686  98.2069 324.4719 0062800  58.3135 302.4187 14.96250603916811
S-NET D                 
1 43186U 18014G   26171.29880828  .00004087  00000+0  21192-3 0  9994
2 43186  97.5356  76.0698 0008631  20.4965 339.6613 15.16696846459235
S-NET B                 
1 43187U 18014H   26171.24434577  .00003738  00000+0  19427-3 0  9996
2 43187  97.5362  76.0022 0009112  15.6078 344.5434 15.16666684459222
S-NET A                 
1 43188U 18014J   26171.29766921  .00004140  00000+0  21459-3 0  9999
2 43188  97.5373  76.2647 0008975  16.0073 344.1441 15.16704943459232
S-NET C                 
1 43189U 18014K   26171.18226088  .00003712  00000+0  19299-3 0  9996
2 43189  97.5390  76.2251 0010138   7.9683 352.1709 15.16658370457767
SALSAT                  
1 46495U 20068K   26170.95810387  .00006379  00000+0  22355-3 0  9995
2 46495  97.8854 174.1914 0007892 296.5001  63.5428 15.29832652315782
OOV-CUBE (TUBSAT-30)    
1 60240U 24128F   26170.58394809  .00001296  00000+0  11023-3 0  9998
2 60240  61.9930 217.2156 0044338 134.2886 226.1856 15.02780984106472
LPNTSAT-001 (IOD-1)     
1 68408U 26065A   26170.91022944  .00002068  00000+0  10310-3 0  9995
2 68408  97.4012  51.3621 0016389   1.3346 358.7929 15.18549663 12670
